QIANFAN GROUP 7 OBJECT E
1 68640U 26075E   26106.87172584  .00000344  00000+0  14925-3 0  9995
2 68640  88.9911 327.6406 0014477 183.4928 176.6164 14.21984019  1324
