{
  "norad_id": 68640,
  "name": "QIANFAN GROUP 7 OBJECT E",
  "history": [
    {
      "epoch": "2026-04-16T20:55:17.112576Z",
      "apogee_km": 829.0695906047904,
      "perigee_km": 808.2320112060488,
      "latitude_deg": -5.3026295280954165e-05,
      "longitude_deg": 168.80608602312842,
      "height_km": 832.1095796221728,
      "semi_major_axis_km": 7196.787800905419,
      "eccentricity": 0.0014477,
      "inclination_deg": 88.9911,
      "raan_deg": 327.6406,
      "arg_perigee_deg": 183.4928,
      "mean_anomaly_deg": 176.6164,
      "mean_motion_rev_day": 14.21984019
    }
  ]
}